{
    "links": {
        "self": "http://www.neowsapp.com/rest/v1/neo/3466111?api_key=iIulBulltgU6a56xZRHN4H3l9WmuAYTsLGpBGhQ2"
    },
    "id": "3466111",
    "neo_reference_id": "3466111",
    "name": "(2009 QC23)",
    "designation": "2009 QC23",
    "nasa_jpl_url": "http://ssd.jpl.nasa.gov/sbdb.cgi?sstr=3466111",
    "absolute_magnitude_h": 24.8,
    "estimated_diameter": {
        "kilometers": {
            "estimated_diameter_min": 0.0291443905,
            "estimated_diameter_max": 0.0651688382
        },
        "meters": {
            "estimated_diameter_min": 29.1443904535,
            "estimated_diameter_max": 65.1688382168
        },
        "miles": {
            "estimated_diameter_min": 0.018109479,
            "estimated_diameter_max": 0.0404940262
        },
        "feet": {
            "estimated_diameter_min": 95.6180819754,
            "estimated_diameter_max": 213.8085311752
        }
    },
    "is_potentially_hazardous_asteroid": false,
    "close_approach_data": [
        {
            "close_approach_date": "1900-06-05",
            "close_approach_date_full": "1900-Jun-05 07:06",
            "epoch_date_close_approach": -2195571240000,
            "relative_velocity": {
                "kilometers_per_second": "15.2932181534",
                "kilometers_per_hour": "55055.5853523926",
                "miles_per_hour": "34209.3996874353"
            },
            "miss_distance": {
                "astronomical": "0.2514233296",
                "lunar": "97.8036752144",
                "kilometers": "37612394.576467952",
                "miles": "23371258.2501716576"
            },
            "orbiting_body": "Earth"
        },
        {
            "close_approach_date": "1997-05-24",
            "close_approach_date_full": "1997-May-24 23:12",
            "epoch_date_close_approach": 864515520000,
            "relative_velocity": {
                "kilometers_per_second": "21.9796953911",
                "kilometers_per_hour": "79126.9034080482",
                "miles_per_hour": "49166.3806204064"
            },
            "miss_distance": {
                "astronomical": "0.4860957299",
                "lunar": "189.0912389311",
                "kilometers": "72718885.809135313",
                "miles": "45185420.3660127994"
            },
            "orbiting_body": "Earth"
        },
        {
            "close_approach_date": "2009-08-18",
            "close_approach_date_full": "2009-Aug-18 20:39",
            "epoch_date_close_approach": 1250627940000,
            "relative_velocity": {
                "kilometers_per_second": "8.3434867733",
                "kilometers_per_hour": "30036.5523839496",
                "miles_per_hour": "18663.545563238"
            },
            "miss_distance": {
                "astronomical": "0.0221389652",
                "lunar": "8.6120574628",
                "kilometers": "3311942.037924124",
                "miles": "2057945.3541719512"
            },
            "orbiting_body": "Earth"
        },
        {
            "close_approach_date": "2012-09-11",
            "close_approach_date_full": "2012-Sep-11 00:17",
            "epoch_date_close_approach": 1347322620000,
            "relative_velocity": {
                "kilometers_per_second": "13.8638920533",
                "kilometers_per_hour": "49910.0113918044",
                "miles_per_hour": "31012.1401339798"
            },
            "miss_distance": {
                "astronomical": "0.2009109773",
                "lunar": "78.1543701697",
                "kilometers": "30055854.263698351",
                "miles": "18675841.8291692038"
            },
            "orbiting_body": "Earth"
        },
        {
            "close_approach_date": "2015-09-27",
            "close_approach_date_full": "2015-Sep-27 00:46",
            "epoch_date_close_approach": 1443314760000,
            "relative_velocity": {
                "kilometers_per_second": "20.803066062",
                "kilometers_per_hour": "74891.0378232803",
                "miles_per_hour": "46534.3784741377"
            },
            "miss_distance": {
                "astronomical": "0.4280769825",
                "lunar": "166.5219461925",
                "kilometers": "64039404.778027275",
                "miles": "39792240.938335395"
            },
            "orbiting_body": "Earth"
        }
    ],
    "orbital_data": {
        "orbit_id": "19",
        "orbit_determination_date": "2017-04-06 09:00:11",
        "first_observation_date": "2009-08-22",
        "last_observation_date": "2009-09-16",
        "data_arc_in_days": 25,
        "observations_used": 111,
        "orbit_uncertainty": "7",
        "minimum_orbit_intersection": ".0110893",
        "jupiter_tisserand_invariant": "3.565",
        "epoch_osculation": "2459000.5",
        "eccentricity": ".519735420178259",
        "semi_major_axis": "2.095567122122976",
        "inclination": "3.968536957084403",
        "ascending_node_longitude": "328.4410699203785",
        "orbital_period": "1108.02814230591",
        "perihelion_distance": "1.006426663394646",
        "perihelion_argument": "337.2216917346294",
        "aphelion_distance": "3.184707580851306",
        "perihelion_time": "2459478.414649854446",
        "mean_anomaly": "204.7248157528292",
        "mean_motion": ".3249014950566205",
        "equinox": "J2000",
        "orbit_class": {
            "orbit_class_type": "APO",
            "orbit_class_description": "Near-Earth asteroid orbits which cross the Earth’s orbit similar to that of 1862 Apollo",
            "orbit_class_range": "a (semi-major axis) > 1.0 AU; q (perihelion) < 1.017 AU"
        }
    },
    "is_sentry_object": false
}